start=new Date('2021-12-01T00:00:00.000Z').valueOf();
sats=[{"TLE_LINE2":"2 46046  53.0555 259.2447 0001306 204.5429 155.5520 15.55341185 74141","MEAN_MOTION_DDOT":"0.0000000000000","RA_OF_ASC_NODE":"259.2447","SEMIMAJOR_AXIS":"6779.298","APOAPSIS":"402.048","LAUNCH_DATE":"2020-08-07","OBJECT_ID":"2020-055V","CLASSIFICATION_TYPE":"U","OBJECT_NAME":"STARLINK-1514","EPOCH":"2021-11-30T11:51:29.728512","MEAN_ANOMALY":"155.5520","PERIOD":"92.584","INCLINATION":"53.0555","GP_ID":"190814347","BSTAR":"0.00028557000000","SITE":"AFETR","REV_AT_EPOCH":"7414","MEAN_ELEMENT_THEORY":"SGP4","PERIAPSIS":"400.278","TLE_LINE1":"1 46046U 20055V   21334.49409408  .00019301  00000-0  28557-3 0  9997","NORAD_CAT_ID":"46046","ARG_OF_PERICENTER":"204.5429","EPHEMERIS_TYPE":"0","ECCENTRICITY":"0.00013060","FILE":"3228256","TIME_SYSTEM":"UTC","CENTER_NAME":"EARTH","DECAY_DATE":null,"COUNTRY_CODE":"US","RCS_SIZE":"LARGE","OBJECT_TYPE":"PAYLOAD","REF_FRAME":"TEME","MEAN_MOTION":"15.55341185","ELEMENT_SET_NO":"999","MEAN_MOTION_DOT":"0.00019301"},{"MEAN_MOTION_DOT":"0.00000404","ELEMENT_SET_NO":"999","MEAN_MOTION":"15.06405595","RCS_SIZE":"LARGE","REF_FRAME":"TEME","OBJECT_TYPE":"PAYLOAD","COUNTRY_CODE":"US","DECAY_DATE":null,"CENTER_NAME":"EARTH","TIME_SYSTEM":"UTC","FILE":"3228256","ECCENTRICITY":"0.00021690","NORAD_CAT_ID":"46047","TLE_LINE1":"1 46047U 20055W   21334.65600938  .00000404  00000-0  46025-4 0  9992","ARG_OF_PERICENTER":"55.1380","EPHEMERIS_TYPE":"0","REV_AT_EPOCH":"7389","PERIAPSIS":"545.694","MEAN_ELEMENT_THEORY":"SGP4","INCLINATION":"53.0551","BSTAR":"0.00004602500000","GP_ID":"190815598","SITE":"AFETR","EPOCH":"2021-11-30T15:44:39.210432","OBJECT_NAME":"STARLINK-1524","PERIOD":"95.592","MEAN_ANOMALY":"304.9812","OBJECT_ID":"2020-055W","CLASSIFICATION_TYPE":"U","TLE_LINE2":"2 46047  53.0551 279.8944 0002169  55.1380 304.9812 15.06405595 73899","MEAN_MOTION_DDOT":"0.0000000000000","APOAPSIS":"548.699","LAUNCH_DATE":"2020-08-07","RA_OF_ASC_NODE":"279.8944","SEMIMAJOR_AXIS":"6925.331"},{"ELEMENT_SET_NO":"999","MEAN_MOTION_DOT":"0.00000356","MEAN_MOTION":"15.06402422","FILE":"3228256","TIME_SYSTEM":"UTC","DECAY_DATE":null,"CENTER_NAME":"EARTH","COUNTRY_CODE":"US","RCS_SIZE":"LARGE","OBJECT_TYPE":"PAYLOAD","REF_FRAME":"TEME","ECCENTRICITY":"0.00023170","MEAN_ELEMENT_THEORY":"SGP4","PERIAPSIS":"545.602","REV_AT_EPOCH":"7390","ARG_OF_PERICENTER":"72.7651","EPHEMERIS_TYPE":"0","TLE_LINE1":"1 46048U 20055X   21334.85136660  .00000356  00000-0  42801-4 0  9995","NORAD_CAT_ID":"46048","MEAN_ANOMALY":"287.3591","PERIOD":"95.592","OBJECT_NAME":"STARLINK-1527","EPOCH":"2021-11-30T20:25:58.074240","GP_ID":"190815849","SITE":"AFETR","BSTAR":"0.00004280100000","INCLINATION":"53.0503","CLASSIFICATION_TYPE":"U","OBJECT_ID":"2020-055X","SEMIMAJOR_AXIS":"6925.341","RA_OF_ASC_NODE":"279.0010","APOAPSIS":"548.811","LAUNCH_DATE":"2020-08-07","TLE_LINE2":"2 46048  53.0503 279.0010 0002317  72.7651 287.3591 15.06402422 73900","MEAN_MOTION_DDOT":"0.0000000000000"},{"ECCENTRICITY":"0.00017150","FILE":"3228256","TIME_SYSTEM":"UTC","DECAY_DATE":null,"CENTER_NAME":"EARTH","COUNTRY_CODE":"US","RCS_SIZE":"LARGE","OBJECT_TYPE":"PAYLOAD","REF_FRAME":"TEME","MEAN_MOTION":"15.06393076","ELEMENT_SET_NO":"999","MEAN_MOTION_DOT":"0.00000482","SEMIMAJOR_AXIS":"6925.370","RA_OF_ASC_NODE":"280.2191","LAUNCH_DATE":"2020-08-07","APOAPSIS":"548.422","TLE_LINE2":"2 46049  53.0543 280.2191 0001715  58.0028 302.1128 15.06393076 73899","MEAN_MOTION_DDOT":"0.0000000000000","CLASSIFICATION_TYPE":"U","OBJECT_ID":"2020-055Y","MEAN_ANOMALY":"302.1128","PERIOD":"95.593","OBJECT_NAME":"STARLINK-1530","EPOCH":"2021-11-30T13:58:30.676800","BSTAR":"0.00005123700000","GP_ID":"190814597","SITE":"AFETR","INCLINATION":"53.0543","MEAN_ELEMENT_THEORY":"SGP4","PERIAPSIS":"546.047","REV_AT_EPOCH":"7389","ARG_OF_PERICENTER":"58.0028","EPHEMERIS_TYPE":"0","TLE_LINE1":"1 46049U 20055Y   21334.58229950  .00000482  00000-0  51237-4 0  9994","NORAD_CAT_ID":"46049"},{"ECCENTRICITY":"0.00016210","TIME_SYSTEM":"UTC","FILE":"3228256","REF_FRAME":"TEME","RCS_SIZE":"LARGE","OBJECT_TYPE":"PAYLOAD","DECAY_DATE":null,"COUNTRY_CODE":"US","CENTER_NAME":"EARTH","MEAN_MOTION":"15.64024843","ELEMENT_SET_NO":"999","MEAN_MOTION_DOT":"0.00117141","TLE_LINE2":"2 46050  53.0520 259.7691 0001621  65.7995 294.3188 15.64024843 74162","MEAN_MOTION_DDOT":"0.0000000000000","APOAPSIS":"377.142","LAUNCH_DATE":"2020-08-07","RA_OF_ASC_NODE":"259.7691","SEMIMAJOR_AXIS":"6754.182","OBJECT_ID":"2020-055Z","CLASSIFICATION_TYPE":"U","EPOCH":"2021-11-30T09:54:05.512320","OBJECT_NAME":"STARLINK-1535","PERIOD":"92.070","MEAN_ANOMALY":"294.3188","INCLINATION":"53.0520","GP_ID":"190814847","SITE":"AFETR","BSTAR":"0.00120520000000","REV_AT_EPOCH":"7416","PERIAPSIS":"374.952","MEAN_ELEMENT_THEORY":"SGP4","NORAD_CAT_ID":"46050","TLE_LINE1":"1 46050U 20055Z   21334.41256380  .00117141  00000-0  12052-2 0  9996","ARG_OF_PERICENTER":"65.7995","EPHEMERIS_TYPE":"0"},{"CLASSIFICATION_TYPE":"U","OBJECT_ID":"2020-055AA","LAUNCH_DATE":"2020-08-07","APOAPSIS":"548.768","RA_OF_ASC_NODE":"280.3507","SEMIMAJOR_AXIS":"6925.363","MEAN_MOTION_DDOT":"0.0000000000000","TLE_LINE2":"2 46051  53.0537 280.3507 0002224  55.7061 304.4138 15.06395367 73895","PERIAPSIS":"545.688","MEAN_ELEMENT_THEORY":"SGP4","REV_AT_EPOCH":"7389","ARG_OF_PERICENTER":"55.7061","EPHEMERIS_TYPE":"0","NORAD_CAT_ID":"46051","TLE_LINE1":"1 46051U 20055AA  21334.55281310 -.00000057  00000-0  15094-4 0  9992","PERIOD":"95.592","MEAN_ANOMALY":"304.4138","EPOCH":"2021-11-30T13:16:03.051840","OBJECT_NAME":"STARLINK-1540","SITE":"AFETR","GP_ID":"190815099","BSTAR":"0.00001509400000","INCLINATION":"53.0537","TIME_SYSTEM":"UTC","FILE":"3228256","RCS_SIZE":"LARGE","REF_FRAME":"TEME","OBJECT_TYPE":"PAYLOAD","COUNTRY_CODE":"US","DECAY_DATE":null,"CENTER_NAME":"EARTH","ECCENTRICITY":"0.00022240","ELEMENT_SET_NO":"999","MEAN_MOTION_DOT":"-0.00000057","MEAN_MOTION":"15.06395367"},{"TIME_SYSTEM":"UTC","FILE":"3228256","RCS_SIZE":"LARGE","REF_FRAME":"TEME","OBJECT_TYPE":"PAYLOAD","CENTER_NAME":"EARTH","DECAY_DATE":null,"COUNTRY_CODE":"US","ECCENTRICITY":"0.00021490","ELEMENT_SET_NO":"999","MEAN_MOTION_DOT":"0.00000171","MEAN_MOTION":"15.06398139","CLASSIFICATION_TYPE":"U","OBJECT_ID":"2020-055AB","APOAPSIS":"548.708","LAUNCH_DATE":"2020-08-07","RA_OF_ASC_NODE":"279.8170","SEMIMAJOR_AXIS":"6925.354","MEAN_MOTION_DDOT":"0.0000000000000","TLE_LINE2":"2 46052  53.0539 279.8170 0002149  65.5173 294.6040 15.06398139 73876","PERIAPSIS":"545.731","MEAN_ELEMENT_THEORY":"SGP4","REV_AT_EPOCH":"7387","ARG_OF_PERICENTER":"65.5173","EPHEMERIS_TYPE":"0","NORAD_CAT_ID":"46052","TLE_LINE1":"1 46052U 20055AB  21334.67075869  .00000171  00000-0  30397-4 0  9995","PERIOD":"95.592","MEAN_ANOMALY":"294.6040","EPOCH":"2021-11-30T16:05:53.550816","OBJECT_NAME":"STARLINK-1541","SITE":"AFETR","GP_ID":"190815350","BSTAR":"0.00003039700000","INCLINATION":"53.0539"},{"CLASSIFICATION_TYPE":"U","OBJECT_ID":"2020-055AC","APOAPSIS":"548.571","LAUNCH_DATE":"2020-08-07","RA_OF_ASC_NODE":"279.2027","SEMIMAJOR_AXIS":"6925.377","MEAN_MOTION_DDOT":"0.0000000000000","TLE_LINE2":"2 46053  53.0531 279.2027 0001920  63.7271 296.3915 15.06390799 73929","ARG_OF_PERICENTER":"63.7271","EPHEMERIS_TYPE":"0","NORAD_CAT_ID":"46053","TLE_LINE1":"1 46053U 20055AC  21334.80714438 -.00001258  00000-0 -65592-4 0  9997","PERIAPSIS":"545.912","MEAN_ELEMENT_THEORY":"SGP4","REV_AT_EPOCH":"7392","SITE":"AFETR","GP_ID":"190814098","BSTAR":"-0.00006559200000","INCLINATION":"53.0531","PERIOD":"95.593","MEAN_ANOMALY":"296.3915","EPOCH":"2021-11-30T19:22:17.274432","OBJECT_NAME":"STARLINK-1543","REF_FRAME":"TEME","RCS_SIZE":"LARGE","OBJECT_TYPE":"PAYLOAD","DECAY_DATE":null,"COUNTRY_CODE":"US","CENTER_NAME":"EARTH","TIME_SYSTEM":"UTC","FILE":"3228256","ECCENTRICITY":"0.00019200","MEAN_MOTION_DOT":"-0.00001258","ELEMENT_SET_NO":"999","MEAN_MOTION":"15.06390799"},{"RCS_SIZE":"LARGE","REF_FRAME":"TEME","OBJECT_TYPE":"PAYLOAD","COUNTRY_CODE":"US","DECAY_DATE":null,"CENTER_NAME":"EARTH","TIME_SYSTEM":"UTC","FILE":"3228256","ECCENTRICITY":"0.00018620","MEAN_MOTION_DOT":"-0.00001841","ELEMENT_SET_NO":"999","MEAN_MOTION":"15.06397365","OBJECT_ID":"2020-055AD","CLASSIFICATION_TYPE":"U","MEAN_MOTION_DDOT":"0.0000000000000","TLE_LINE2":"2 46054  53.0545 280.3544 0001862  53.1264 306.9896 15.06397365 73889","LAUNCH_DATE":"2020-08-07","APOAPSIS":"548.511","RA_OF_ASC_NODE":"280.3544","SEMIMAJOR_AXIS":"6925.357","NORAD_CAT_ID":"46054","TLE_LINE1":"1 46054U 20055AD  21334.54912413 -.00001841  00000-0 -10473-3 0  9997","ARG_OF_PERICENTER":"53.1264","EPHEMERIS_TYPE":"0","REV_AT_EPOCH":"7388","PERIAPSIS":"545.932","MEAN_ELEMENT_THEORY":"SGP4","INCLINATION":"53.0545","GP_ID":"190814348","BSTAR":"-0.00010473000000","SITE":"AFETR","EPOCH":"2021-11-30T13:10:44.324832","OBJECT_NAME":"STARLINK-1548","PERIOD":"95.592","MEAN_ANOMALY":"306.9896"},{"CLASSIFICATION_TYPE":"U","OBJECT_ID":"2020-055AE","RA_OF_ASC_NODE":"281.6288","SEMIMAJOR_AXIS":"6925.293","LAUNCH_DATE":"2020-08-07","APOAPSIS":"548.541","TLE_LINE2":"2 46055  53.0546 281.6288 0001997  52.0622 308.0548 15.06418046 73848","MEAN_MOTION_DDOT":"0.0000000000000","MEAN_ELEMENT_THEORY":"SGP4","PERIAPSIS":"545.775","REV_AT_EPOCH":"7384","ARG_OF_PERICENTER":"52.0622","EPHEMERIS_TYPE":"0","TLE_LINE1":"1 46055U 20055AE  21334.26898300 -.00003142  00000-0 -19204-3 0  9992","NORAD_CAT_ID":"46055","MEAN_ANOMALY":"308.0548","PERIOD":"95.591","OBJECT_NAME":"STARLINK-1554","EPOCH":"2021-11-30T06:27:20.131200","SITE":"AFETR","GP_ID":"190782378","BSTAR":"-0.00019204000000","INCLINATION":"53.0546","FILE":"3227572","TIME_SYSTEM":"UTC","DECAY_DATE":null,"COUNTRY_CODE":"US","CENTER_NAME":"EARTH","RCS_SIZE":"LARGE","REF_FRAME":"TEME","OBJECT_TYPE":"PAYLOAD","ECCENTRICITY":"0.00019970","ELEMENT_SET_NO":"999","MEAN_MOTION_DOT":"-0.00003142","MEAN_MOTION":"15.06418046"}];
